name,address,lon,lat
Feile,"131 W 33rd St, Manhattan, NY",-73.9896655,40.7498851
Whitmans Restaurant,"500 W 30th St, Manhattan, NY",-74.0016497,40.75211
The Celtic Rail NYC,"137 W 33rd St, Manhattan, NY",-73.9899172,40.7500832
Maggie Reilly's,"340 9th Ave, Manhattan, NY",-73.9981345,40.7504385
The Kunjip Restaurant,"32 W 32nd St, Manhattan, NY",-73.9872574,40.7476187
Antoya Korean BBQ (formerly Samwon Garden),"37 32nd St, Manhattan, NY",-73.9872039,40.7481097
Lady Mara,"518 W 27th St, Manhattan, NY",-74.0034186,40.7504133
The Triple Crown,"330 7th Ave, Manhattan, NY",-73.9933782,40.7477463
Lombardi's,"290 8th Ave, Manhattan, NY",-73.9974449,40.7462466
Tramonti Fifth Ave,"2 W 28th St, Manhattan, NY",-73.9877156,40.7447504
Food Gallery 32,"11 W 32nd St Manhattan, NY",-73.9861939,40.7477348
The Harold,"1271 Broadway, Manhattan, NY",-73.988376,40.748214
Friedmans Restaurant,"132 W 31St St, Manhattan, NY",-73.990714,40.748267
Izakaya MEW,"53 W 35th St, Manhattan, NY",-73.9863204,40.7501853
miss Korea BBQ,"10 W 32nd St, Manhattan, NY",-73.9864768,40.7473149
Porchlight,"271 11th Ave, Manhattan, NY",-74.0051493,40.7519006
Monarch Rooftop,"71 W 35th St, Manhattan, NY",-73.9868149,40.7503845
Porteno,"299 10th Ave, Manhattan, NY",-74.0024502,40.7504711
The Chelsea Bell,"260 W 26th St, Manhattan, NY",-73.9966838,40.7468656
Barn Joo Nomad,"816 6th Ave, Manhattan, NY",-73.9902233,40.7460711
Maggie Reilly's,"340 9th Ave, Manhattan, NY",-73.9981345,40.7504385
KOKU RAMEN,"2 W 32nd St, Manhattan, NY",-73.9861784,40.7472532
Osamil,"5 W 31St St, Manhattan, NY",-73.9864309,40.746961
The Liberty NYC,"29 W 35th St, Manhattan, NY",-73.9855335,40.7499441
Hanbat Restaurant,"53 W 35th St, Manhattan, NY",-73.9863204,40.7501853
Patent Coffee,"49 W 27th St, Manhattan, NY",-73.9902255,40.7453144
OCabanon,"245 W 29th St, Manhattan, NY",-73.9945268,40.7488206
Jun-Men Ramen Bar,"249 9th Ave, Manhattan, NY",-74.000481,40.7481599
Gallow Green,"542 W 27th St, Manhattan, NY",-74.004176,40.750733
Five Senses,"9 W 32nd St, Manhattan, NY",-73.9860561,40.7477152
Kahlo,"525 W 29th St, Manhattan, NY",-74.0026804,40.7521599
Gopchang Story,"312 5th Ave, 2nd Fl, Manhattan, NY",-73.985964,40.747046
MK Karaoke,"11 W 32nd St, 5th fl, Manhattan, NY",-73.9861939,40.7477348
Tick Tock Diner,"481 8th Ave, Manhattan, NY",-73.9935627,40.7526594
Salumeria Biellese Inc/Biricchino,"378 8th Ave, Manhattan, NY",-73.9955951,40.7488727
Death Avenue,"313 10th Ave, Manhattan, NY",-74.0020597,40.7510431
Citizens Of Chelsea,"401 W 25th St, Manhattan, NY",-74.0006181,40.7481218
L'Adresse Nomad,"1184 Broadway, Manhattan, NY",-73.9884895,40.7455087
Taboo,"406 8th Ave, Manhattan, NY",-73.9948065,40.7498014
Turntable Chicken Rock,"290 5th Ave, Manhattan, NY",-73.9864727,40.7463124
Pennsylvania 6 NYC,"132 W 31St St, Manhattan, NY",-73.990714,40.748267
Crompton Ale House,"159 W 26th St, Manhattan, NY",-73.9933768,40.7458602
HANAMICHI,"28 W 32nd St, Manhattan, NY",-73.9870841,40.7476146
John Sullivan's,"210 W 35th St, Manhattan, NY",-73.9907103,40.7516529
Smithfield Hall,"138 W 25th St, Manhattan, NY",-73.9937057,40.7447724
Ciao bella,"257 7th Ave, Manhattan, NY",-73.9946469,40.7450796
Friedman's,"132 W 31St St, Manhattan, NY",-73.990714,40.748267
Skylight Diner,"402 34th St, Manhattan, NY",-73.9967919,40.7533794
Patent Coffee / Patent Pending,"49 W 27th St, Manhattan, NY",-73.9902255,40.7453144
Niles Restaurant,"371 7th Ave, Manhattan, NY",-73.9918772,40.7488133
Juniper,"237 W 35th St, Manhattan, NY",-73.991336,40.7524014
Barn Joo 35,"34 W 35th St, Manhattan, NY",-73.9858211,40.7496638
PLANTA QUEEN,"15 W 27th St, Manhattan, NY",-73.9882868,40.7444668
THE MAZE,"32 W 32nd St, Manhattan, NY",-73.9872574,40.7476187
IL Piccolo Ristoro,"508 W 28th St, Manhattan, NY",-74.0024806,40.7509232
Ovest Pizzoteca,"513 W 27th St, Manhattan, NY",-74.0030054,40.7507787
The Smith,"1150 Broadway, Manhattan, NY",-73.9887481,40.7442146
Nick and Stef's Steakhouse,"9 PENN PLAZA, Manhattan, NY",-73.993238,40.7510426
Our New York Vodka,"151 W 26th St, Manhattan, NY",-73.9932066,40.7456676
Space Karaoke,"34 W 32nd St, 11th fl, Manhattan, NY",-73.9873339,40.7478091
Cafe R,"116 W 32nd St, Manhattan, NY",-73.9897521,40.7486836
Radio Star Karaoke,"3 W 35th St, Manhattan, NY",-73.9845738,40.749517
Oscar Wilde,"45 W 27th St, Manhattan, NY",-73.9900275,40.7451715
Blarney Stone Bar and Restaurant,"410 8th Ave, Manhattan, NY",-73.9947888,40.7499071
KazuNori the Original Hand Roll Bar,"15 W 28th St, Manhattan, NY",-73.9881044,40.7452909
Jongro BBQ,"22 W 32nd St, Manhattan, NY",-73.986913,40.7475891
The Orchard Townhouse,"242 10th Ave, Manhattan, NY",-74.0034316,40.748382
Pioneers Bar and Lounge,"134 W 29th St, Manhattan, NY",-73.9917767,40.7471233
New Wonjo,"23 W 32 St, Manhattan, NY",-73.986653,40.7478771
La Noxe,"315 7th Ave, Manhattan, NY",-73.993224,40.7469616
Dim Sum Palace,"33 W 33rd St, Manhattan, NY",-73.9867614,40.7485991
The Ainsworth,"122 W 26th St, Manhattan, NY",-73.9926056,40.7450796
Turntable Chicken Jazz,"20 W 33 St, Manhattan, NY",-73.9863847,40.7481888
33 Gourmet,"157 W 33rd St, Manhattan, NY",-73.9905133,40.7503215
Ajisen Ramen,"136 W 28th St, Manhattan, NY",-73.992214,40.7466253
Kyma,"445 W 35th St, Manhattan, NY",-73.9978137,40.7550643
TGI Fridays,"211 W 34th St, Manhattan, NY",-73.9913155,40.7515686
Canaan Sushi,"154 W 29th St, Manhattan, NY",-73.9923047,40.7473719
Bottino,"246 10th Ave, Manhattan, NY",-74.0032891,40.7485037
Walter's Bar,"389 8th Ave, Manhattan, NY",-73.995839,40.749341
Mykonos Blue,"127 W 28th St, Manhattan, NY",-73.9917767,40.7467373
Black Tap Craft Burgers and Beer,"45 W 35th St Manhattan, NY",-73.9859914,40.750143
Mustang Harry's,"352 7th Ave, Manhattan, NY",-73.9928419,40.748264
Jack Doyle's Irish Pub and Restaurant,"240 W 35th St, Manhattan, NY",-73.9920287,40.7521012
The Hudson Bar Room,"444 10th Ave, Manhattan, NY",-73.998475,40.7550158
Udon Lab,"43 W 32nd St, Manhattan, NY",-73.9874565,40.7482035
Stout NYC,"133 W 33rd St, Manhattan, NY",-73.9898656,40.7499664
BCD Tofu House,"5 W 32nd St, Manhattan, NY",-73.9859643,40.747625
Cafe Nunez,"240 W 35th St, Manhattan, NY",-73.9920287,40.7521012
Shukette,"230 9th Ave, Manhattan, NY",-74.0005218,40.7471546
Jack Demsey's,"36 W 33rd St, Manhattan, NY",-73.9869629,40.7483168
HEY YUET,"251 W 26th St, Manhattan, NY",-73.996365,40.747137
Legends,"6 W 33rd St, Manhattan, NY",-73.985845,40.7480127
Hyo Dong Gak,"51 W 35th St, Manhattan, NY",-73.9862269,40.7501219
ilili,"236 5th Ave, Manhattan, NY",-73.9879195,40.7444147
Haymaker Bar and Kitchen,"252 W 29th St, Manhattan, NY",-73.9953108,40.7486658
Woorijip,"12 W 32nd St, Manhattan, NY",-73.9865687,40.7474051
BARO by Chefs Society,"34 W 32nd St, Manhattan, NY",-73.9873339,40.7478091
Playwright Irish Pub,"27 W 35th St, Manhattan, NY",-73.9853614,40.7498714
Skirt Steak,"835 Ave OF thE AMERICAS, Manhattan, NY",-73.9900333,40.7470222
Bravo Pizza,"360 7th Ave, Manhattan, NY",-73.9926869,40.748464
Ichiran,"132 W 31St St, Manhattan, NY",-73.990714,40.748267
Ulivo,"4 W 28th St, Manhattan, NY",-73.9879883,40.7447912
K Town Pocha,"34 W 32nd St Manhattan, NY",-73.9873339,40.7478091
Uncle Jack's Steakhouse,"440 9th Ave, Manhattan, NY",-73.9955598,40.7536567
Nangman BBQ,"793 6th Ave, Manhattan, NY",-73.9912648,40.7454162
Vin Sur Vingt Wine Bar,"1140 Broadway, Manhattan, NY",-73.9887462,40.7439141
Kushi Kushi Yaki,"2 W 32nd St, Manhattan, NY",-73.9861784,40.7472532
Tir na Nog,"254 W 31St St, Manhattan, NY",-73.9943711,40.7499055
Tempest,"407 8th Ave, Manhattan, NY",-73.9953761,40.7500026
Hudson Station Bar & Grill,"440 9th Ave, Manhattan, NY",-73.9955598,40.7536567
Tracks Restaurant,"220 W 31St St, Manhattan, NY",-73.9931549,40.7494796
The Molly Wee,"402 8th Ave, Manhattan, NY",-73.9949782,40.74967
HanaMichi,"28 W 32nd St, Manhattan, NY",-73.9870841,40.7476146
Space Billiard Pool Hall,"34 W 32nd St, Manhattan, NY",-73.9873339,40.7478091
Chama Mama,"149 W 14th St, Manhattan, NY",-73.9988653,40.7384534
Tao,"369 W16th St, Manhattan, NY",-74.0038464,40.7425376
The Water Hazard,"59 Chelsea Piers, Manhattan, NY",-74.0087216,40.7456816
Shaffer's,"151 8th Ave, Manhattan, NY",-74.0011048,40.7420634
Beer Run,"203 W 19th St, Manhattan, NY",-73.9977429,40.7419271
Empire Diner,"210 10th Ave, Manhattan, NY",-74.0043899,40.7471225
The Copper Still,"206 7th Ave, Manhattan, NY",-73.9964013,40.7433946
Lena,"1 W 8th St, Manhattan, NY",-73.9979682,40.7328475
La Bergamote,"177 9th Ave, Manhattan, NY",-74.0027927,40.7450569
Bar B,"84 7th Ave, Manhattan, NY",-73.9992899,40.7395657
Basta Pasta,"37 W 17th St, Manhattan, NY",-73.9940906,40.7388959
Lasagna Restaurant,"196 8th Ave, Manhattan, NY",-73.9996989,40.7432474
Bocca di Bacco,"169 9th Ave, Manhattan, NY",-74.0030186,40.7446144
Malibu Diner,"163 W 23rd St, Manhattan, NY",-73.9949218,40.7440762
Trailer Park Lounge,"271 W 23rd St, Manhattan, NY",-73.9978245,40.7453275
Margaux,"5 W 8th St, Manhattan, NY",-73.9968064,40.7326462
Fiddlesticks Pub and Grill,"56 Greenwich Ave, Manhattan, NY",-74.0004721,40.7359015
Very Fresh Noodles,"409 W 15th St, Manhattan, NY",-74.0056454,40.7420723
Hollywood Diner,"574 6th Ave, Manhattan, NY",-73.9955791,40.738715
The Mermaid Inn,"227 10th Ave, Manhattan, NY",-74.004196,40.7481297
Pasta By Hudson,"180 7th Ave, Manhattan, NY",-73.9969892,40.7427486
Boqueria,"53 W 19th St, Manhattan, NY",-73.9937306,40.740279
Niche Niche,"43 Macdougal St, Manhattan, NY",-74.0025839,40.7277451
Old Homestead Steakhouse,"56 Ninth Ave, Manhattan, NY",-74.004699,40.7411794
A Salt and Battery LLC,"112 Greenwich Ave, Manhattan, NY",-74.0019916,40.7384368
8th Street Winecellar,"28 W 8th St, Manhattan, NY",-73.9979098,40.7327221
Le Zie 2000,"172 7th Ave, Manhattan, NY",-73.997081,40.74253
Asuka Sushi,"300 W 23rd ST, Manhattan, NY",-73.9989481,40.7453023
The 18th Room,"134 9th Ave, Manhattan, NY",-74.0031156,40.7436115
Ootoya Chelsea,"8 W 18th St, Manhattan, NY",-73.9927981,40.7388278
Jue Lan Club,"49 W 20th St, Manhattan, NY",-73.9936959,40.7409445
Baodega,"7 W 20th St, Manhattan, NY",-73.9917492,40.7401851
District Local,"72 7th Ave, Manhattan, NY",-73.9995455,40.7391477
Le Grainne Cafe,"183 9th Ave, Manhattan, NY",-74.0024479,40.7454138
Momoya Chelsea,"185 7th Ave, Manhattan, NY",-73.9965061,40.7426186
Analogue,"19 W 8th St, Manhattan, NY",-73.9974492,40.7328532
Glur Thai,"144 W 19th St, Manhattan, NY",-73.9967305,40.741104
Neighborhood Goods,"75 9th Ave, Manhattan, NY",-74.0059581,40.7424509
Sushi Seki,"208 W 23rd St, Manhattan, NY",-73.9964368,40.74406
Daisy's Cocktail Garden,"180 10th Ave, Manhattan, NY",-74.004535,40.7459937
Bathtub Gin,"132 9th Ave, Manhattan, NY",-74.0032074,40.7435859
Kyma,"15 W 18th S, Manhattan, NY",-73.9928051,40.7391382
Salinas,"136 9th Ave, Manhattan, NY",-74.0030697,40.7436822
USHIWAKAMARU,"362 W 23RD St, Manhattan, NY",-74.0010259,40.746139
Rasa,"25 W 8th St, Manhattan, NY",-73.9976651,40.732936
Da Andrea,"35 W 13th St, Manhattan, NY",-73.9958123,40.7362477
Chelsea Square Restaurant,"368 W 23rd St, Manhattan, NY",-74.0012555,40.7462101
Tia Pol,"205 10th Ave, Manhattan, NY",-74.004801,40.7473
Westside Tavern,"360 W 23rd St, Manhattan, NY",-74.0009341,40.7461259
North Square Restaurant,"103 Waverly Place, Manhattan, NY",-73.998692,40.7325
Bareburger,"184 8th Ave, Manhattan, NY",-73.9998367,40.7429581
Westville,"246 W 18th St, Manhattan, NY",-74.0000778,40.7417647
AMELIE,"22 W 8th St, Manhattan, NY",-73.9976785,40.7326534
Worthwild,"156 9th Ave, Manhattan, NY",-74.0026028,40.744242
Creamline,"75 9th Ave, Manhattan, NY",-74.0059581,40.7424509
Barcade,"148 W 24th St, Manhattan, NY",-73.9945086,40.7442492
Le Baratin,"26 Greenwich Ave, Manhattan, NY",-73.9999671,40.7349805
Cafeteria,"119 7th Ave, Manhattan, NY",-73.9980333,40.7404954
Shiraz Kitchen,"111 W 17th St, Manhattan, NY",-73.9959804,40.7397484
Juban,"207 10th Ave, Manhattan, NY",-74.004704,40.7473276
Starbucks Reserve Roastery,"61 9th Ave, Manhattan, NY",-74.0056597,40.7416944
SOTTO 13,"140 W 13th St, Manhattan, NY",-73.9991866,40.737225
Pad Thai Noodle Lounge,"114 8th Ave, Manhattan, NY",-74.0014362,40.7408255
Don Giovanni,"214 10th Ave, Manhattan, NY",-74.0041907,40.7473153
Boqueria,"53 W 19th St, Manhattan, NY",-73.9937306,40.740279
Brine,"106 8th Ave, Manhattan, NY",-74.0016657,40.7405878
Dim Sum Chelsea,"236 8th Ave, Manhattan, NY",-73.998629,40.7446121
Salam Restaurant,"104 W 13th St, Manhattan, NY",-73.9979586,40.7367323
Tequila Chitos Mexican Bar & Grill,"358 W 23rd St, Manhattan, NY",-74.0008882,40.7460422
Grace's,"252 W 14th St, Manhattan, NY",-74.0022281,40.7394032
Greenwich Treehouse,"46 Greenwich Ave, Manhattan, NY",-74.000277,40.7356133
Los Mariscos,"409 W 15th St, Manhattan, NY",-74.0056454,40.7420723
Grand Sichuan Eastern,"172 8th Ave, Manhattan, NY",-74.0002032,40.7425407
Ootoya Japanese Restaurant,"8 W 18th St, Manhattan, NY",-73.9927981,40.7388278
Da Umberto,"107 W 17th St, Manhattan, NY",-73.995827,40.739672
Cookshop,"156 10th Ave, Manhattan, NY",-74.0054833,40.745519
La Contenta Oeste,"78 W 11th St, Manhattan, NY",-73.9980504,40.7351431
Artichoke Basille's Pizza,"457 W 17th St, Manhattan, NY",-74.006341,40.7439805
Coppelia,"207 W 14th St, Manhattan, NY",-73.9999532,40.7389823
Qanoon,"180 9th Ave, Manhattan, NY",-74.0019905,40.7452323
Dallas BBQ,"261 8th Ave, Manhattan, NY",-73.9985503,40.7455938
Mojo Omakase,"177 9th Ave, Manhattan, NY",-74.0027927,40.7450569
Jack's Wife Freda,"116 8th Ave, Manhattan, NY",-73.9550821,40.8045291
Coopers Craft and Kitchen,"169 8th Ave, Manhattan, NY",-74.0007595,40.7427021
Catch Steak,"88 Ninth Ave, Manhattan, NY",-74.0040829,40.7423522
Elmo Restaurant,"156 7th Ave, Manhattan, NY",-73.9975642,40.7419989
South of the Clouds,"16 W 8th St, Manhattan, NY",-73.9974629,40.7325844
Wicked Jane,"15 W 8th St, Manhattan, NY",-73.9972942,40.7327719
Maki Kosaka,"55 W 19th St, Manhattan, NY",-73.9938224,40.7402921
Oak Tuscan Truffle Lounge,"28 Greenwich Ave, Manhattan, NY",-73.9998753,40.7350833
City Winery New York,"25 11th Ave, Manhattan, NY",-74.0090631,40.743058
Zia Maria,"318 W 23RD ST, Manhattan, NY",-73.9993382,40.7454027
E.A.K. Ramen,"469 Ave of the Americas, Manhattan, NY",-73.9983201,40.7356806
Tacos Guey,"37 W 19th St, Manhattan, NY",-73.9931796,40.7400465
Peter McManus Cafe,"152 7th Ave, Manhattan, NY",-73.997653,40.741859
Cafe-Flor,"218 8th Ave, Manhattan, NY",-73.9991091,40.7440349
Champignon,"200 7th Ave, Manhattan, NY",-73.9966387,40.7432528
AYADA THAI,"75 9th Ave, Manhattan, NY",-74.0059581,40.7424509
Arts and Crafts Beer Parlor,"26 W 8th St, Manhattan, NY",-73.997807,40.7327311
Calle Dao Chelsea,"461 W 23rd St, Manhattan, NY",-74.0035248,40.7476544
CHARM'S,"200 8th Ave, Manhattan, NY",-73.9995027,40.7434814
La Devozione,"75 9th Ave, Manhattan, NY",-74.0059581,40.7424509
Shu Han Ju,"465 6th Ave, Manhattan, NY",-73.9984505,40.7356007
Lamano Wine Bar,"265 W 20th ST, Manhattan, NY",-73.9995142,40.7434155
Elephant & Castle,"68 Greenwich Ave, Manhattan, NY",-74.0006902,40.7362317
Flex Mussels,"154 W 13th St, Manhattan, NY",-73.9997031,40.7373851
BoCaphe,"104 8th Ave, Manhattan, NY",-74.0016198,40.740504
Shaffer's,"151 8th Ave, Manhattan, NY",-74.0011048,40.7420634
Le Baratin,"26 Greenwich Ave, Manhattan, NY",-73.9999671,40.7349805
Counter and Bodega,"216 7th Ave, Manhattan, NY",-73.9962761,40.7438248
Mexicue,"160 Eighth Ave, Manhattan, NY",-74.0004666,40.7420291
Thai Sliders,"150 8th Ave, Manhattan, NY",-74.0007476,40.7418088
The Happiest Hour,"121 W 10th St, Manhattan, NY",-73.9997156,40.7348213
CHELSEA HOTEL,"226 W 23rd St, Manhattan, NY",-73.9969304,40.7445548
Marian’s,"24 Greenwich Ave, Manhattan, NY",-73.9998638,40.7349369
Burger and Lobster,"39 W 19th St, Manhattan, NY",-73.9933563,40.7400574
Rosemary's,"18 Greenwich Ave, Manhattan, NY",-73.9996717,40.7348852
Scampi,"30 W 18th St, Manhattan, NY",-73.9934938,40.7390428
Pastai,"186 9th Ave, Manhattan, NY",-74.0018528,40.7454058
Umami Sushi,"50 Greenwich Ave, Manhattan, NY",-74.0003132,40.7357333
Portale Restaurant,"126 W 18th St, Manhattan, NY",-73.9962684,40.7402084
La Nacional,"239 W 14th St, Manhattan, NY",-74.0011583,40.7394903
Claudette,"24 Fifth Ave, Manhattan, NY",-73.9962714,40.7332403
The Canuck,"202 9th Ave, Manhattan, NY",-74.0014391,40.7459659
The Crooked Knife,"232 W 14th St, Manhattan, NY",-74.0014362,40.7390496
Fonda,"189 9th Ave, Manhattan, NY",-74.0023376,40.7455599
The Grey Dog,"242 W 16th St, Manhattan, NY",-74.0007266,40.740503
Temerario,"198 8th Ave, Manhattan, NY",-73.9995674,40.7435091
ZiZi,"182 8th Ave, Manhattan, NY",-73.9999607,40.7429063
Society Cafe,"52 W 13th St, Manhattan, NY",-73.9966616,40.7361334
Ayada Thai,"75 9th Ave, Manhattan, NY",-74.0059581,40.7424509
Oramen,"579 6th Ave , Manhattan, NY",-73.9959807,40.7390148
Le Zie 2000,"172 7th Ave, Manhattan, NY",-73.997081,40.74253
Vinyl Steakhouse,"35 W 19th St, Manhattan, NY",-73.9930878,40.7400335
The Hawthorn,"505 W 23rd St, Manhattan, NY",-74.0043708,40.7479939
HALL,"17 W 20th St, Manhattan, NY",-73.9921624,40.7403982
Gym Sportsbar,"167 8th Ave, Manhattan, NY",-74.0007861,40.7426413
Yakiniku Futago,"37 W 17th St, Manhattan, NY",-73.9940906,40.7388959
Umami Sushi,"50 Greenwich Ave, Manhattan, NY",-74.0003132,40.7357333
Loring Place,"21 W 8th St, Manhattan, NY",-73.9974616,40.732976
Auntie Guan's Kitchen 108,"108 W 14th St, Manhattan, NY",-73.9975339,40.7374539
The Lobster Place,"448 W 16th St, Manhattan, NY",-74.0065296,40.7428983
Motel Morris,"132 7th Ave, Manhattan, NY",-73.9981634,40.7410187
Le Singe Vert,"160 7th Ave , Manhattan, NY",-73.9998285,40.7387705
South of the Cloud,"16 W 8th St, Manhattan, NY",-73.9974629,40.7325844
Buddakan,"75 9th Ave, Manhattan, NY",-74.0059581,40.7424509
Pepe Giallo,"195 10th Ave, Manhattan, NY",-74.0050222,40.7469042
Counter & Bodega,"266 W 23rd St, Manhattan, NY",-73.9982347,40.7449689
North Square,"103 Waverly Place, Manhattan, NY",-73.998692,40.7325
Flannerys Bar,"205 W 14th St, Manhattan, NY",-73.9998818,40.7389356
Merchants NY,"190 7th Ave, Manhattan, NY",-73.996618,40.743061
Jungle Bird,"174 8th Ave, Manhattan, NY",-74.0001688,40.7426045
Tea & Sympathy,"108 Greenwich Ave, Manhattan, NY",-74.0019068,40.7383152
Beer Run,"203 W 19th St, Manhattan, NY",-73.9977429,40.7419271
Starbucks Reserve,"1 7th Ave, Manhattan, NY",-74.0005041,40.7364913
Osteria 57,"57 W 10th St, Manhattan, NY",-73.9978553,40.7346811
SUSHI SEKI,"208 W 23rd St, Manhattan, NY",-73.9964368,40.74406
Kubeh,"464 Ave of the Americas, Manhattan, NY",-73.9980051,40.7354689
Bodega Negra,"355 W 16th St, Manhattan, NY",-74.0034791,40.7423311
Umami Sushi,"50 Greenwich Ave, Manhattan, NY",-74.0003132,40.7357333
LOULOU,"176 8th Ave, Manhattan, NY",-74.0000524,40.74262
Pastis,"52 Gansevoort St, Manhattan, NY",-74.007014,40.7392418
Sushi Teru,"615 1/2 Hudson St, Manhattan, NY",-74.0059352,40.7379114
Agave,"140 7th Ave South, Manhattan, NY",-74.0024061,40.734755
Little Owl,"90 Bedford St, Manhattan, NY",-74.0053204,40.7323474
Dos Caminos & Troy Liquor Bar,"675 Hudson St, Manhattan, NY",-74.0054362,40.7404411
Hao Noodle,"343 W 14th St, Manhattan, NY",-74.0043317,40.7407413
The Stonewall Inn,"53 Christopher St, Manhattan, NY",-74.0021707,40.7338644
The Four-Faced Liar,"165 W 4th St, Manhattan, NY",-74.0012985,40.7322349
Petite Boucherie,"14 Christopher St, Manhattan, NY",-74.0004287,40.7338319
Cowgirl,"519 Hudson ST, Manhattan, NY",-74.0058279,40.7356258
B'artusi,"520 Hudson St, Manhattan, NY",-74.0059699,40.7338776
Via Porta,"522 Hudson St, Manhattan, NY",-74.0060337,40.7339688
Tue Thai Food,"3 Greenwich Ave, Manhattan, NY",-73.9998553,40.7338521
Tacombi,"255 Bleecker St, Manhattan, NY",-74.0027561,40.7310998
Lelabar,"422 Hudson St, Manhattan, NY",-74.0065664,40.730385
The Village Tavern,"46 Bedford St, Manhattan, NY",-74.0041563,40.730584
White Horse Tavern,"567 Hudson St, Manhattan, NY",-74.0061649,40.735719
Jekyll and Hyde,"91 seventh Ave south, Manhattan, NY",-74.0029512,40.7327781
Sushi on Jones,"210 W 10th St, Manhattan, NY",-74.0041448,40.7339126
Hao Noodle,"343 WEST 14th St, Manhattan, NY",-74.0043317,40.7407413
Oppa Bistro,"162 W 4th St, Manhattan, NY",-74.0013903,40.7318232
Little Branch,"20 7th Ave South, Manhattan, NY",-74.0050449,40.730118
The Otheroom,"143 Perry St, Manhattan, NY",-74.0080519,40.7349742
The Waverly Inn,"16 Bank St, Manhattan, NY",-74.0022657,40.7369054
The Elk,"128 Charles St, Manhattan, NY",-74.0074103,40.7341502
Henrietta Hudson,"438 Hudson St, Manhattan, NY",-74.0064631,40.731133
St Tropez Wine Bar,"304 W 4th St, Manhattan, NY",-74.0039038,40.737054
I Love Panzerotti,"220 Varick St, Manhattan, NY",-74.0050212,40.7290116
Slaughtered Lamb Pub,"182 W 4th St, Manhattan, NY",-74.0019252,40.7323493
Left Bank,"117 Perry St, Manhattan, NY",-74.0067386,40.7351876
While We Were Young,"183 W 10th St, Manhattan, NY",-74.0028479,40.7343755
Dante West Village,"551 Hudson St, Manhattan, NY",-74.0063025,40.7352609
Casa restaurant,"72 Bedford St, Manhattan, NY",-74.0047416,40.7314875
Buvette,"42 Grove St, Manhattan, NY",-74.0043284,40.7326259
Suprema Provisions,"305 Bleecker St, Manhattan, NY",-74.0036439,40.7326906
Shake Shack,"225 Varick St, Manhattan, NY",-74.0054439,40.7292205
Ofrenda,"113 7th Ave South, Manhattan, NY",-74.002372,40.7339272
Boucherie West Village,"99 7th Ave S, Manhattan, NY",-74.0028776,40.7330828
SUPREMA,"305 Bleecker St, Manhattan, NY",-74.0036439,40.7326906
Anfora,"34 8th Ave, Manhattan, NY",-74.0041054,40.7379287
En Japanese Brasserie,"435 Hudson St, Manhattan, NY",-74.0071658,40.730631
Malaparte,"753 Washington St, Manhattan, NY",-74.0080946,40.7368806
Llama San,"359 6th Ave, Manhattan, NY",-74.0008279,40.7322744
Due West,"189 W 10th St, Manhattan, NY",-74.0032395,40.7343315
Entwine,"765 Washington St, Manhattan, NY",-74.0079666,40.7373982
Mighty Quinn's Barbeque,"75 Greenwich Ave, Manhattan, NY",-74.0014332,40.7367065
Quality Eats,"19 Greenwich Ave, Manhattan, NY",-74.0000553,40.7345017
The Butcher's Daughter,"581 Hudson St, Manhattan, NY",-74.006155,40.736362
Pizzetteria Brunetti,"626 Hudson St, Manhattan, NY",-74.0053786,40.7382727
Leitao,"547 Hudson St, Manhattan, NY",-74.0063658,40.7349372
Kettle of Fish,"59 Christopher St, Manhattan, NY",-74.0023888,40.7338085
Jack's Wife Freda,"50 CARMINE ST, Manhattan, NY",-74.0035021,40.7298059
Baby Brasa,"173 7th Ave south, Manhattan, NY",-74.0012344,40.7359703
Joseph Leonard,"170 Waverly Place, Manhattan, NY",-74.0013486,40.7337356
The Garret,"296 Bleecker St, Manhattan, NY",-74.0038162,40.7323381
Menkoi Sato,"7 Cornelia St , Manhattan, NY",-74.0016198,40.7317786
The Butcher's Daughter,"581 Hudson St, Manhattan, NY",-74.006155,40.736362
Fairfax,"234 W 4th St, Manhattan, NY",-74.0032165,40.7343351
The Duplex,"61 Christopher St, Manhattan, NY",-74.0024825,40.7337976
The Lavaux Wine Bar,"630 Hudson St, Manhattan, NY",-74.0053442,40.7383739
L'Artusi,"228 W 10th St, Manhattan, NY",-74.0051144,40.7337081
Snack Taverna,"63 Bedford St, Manhattan, NY",-74.0048219,40.7310259
Fig & Olive,"420 W 13th St, Manhattan, NY",-74.0070608,40.7405062
New Istanbul Grill,"310 W 14th St, Manhattan, NY",-74.003404,40.7398318
Berimbau Brazilian Kitchen,"43 Carmine St, Manhattan, NY",-74.0036516,40.7300864
Caliente Cab Co,"61 7th Ave South, Manhattan, NY",-74.003548,40.7318202
The Leroy House,"430 Hudson St, Manhattan, NY",-74.006532,40.7306215
Roey's,"1 Perry St, Manhattan, NY",-74.0009892,40.7359857
Corner Bistro,"331 W 4th St, Manhattan, NY",-74.0037457,40.7379923
Bus Stop Cafe,"597 Hudson St, Manhattan, NY",-74.0059811,40.7370299
Waverly Restaurant,"385 6th Ave, Manhattan, NY",-74.0002799,40.7331624
Ghandi Cafe,"283  Bleecker St, Manhattan, NY",-74.0031348,40.7319933
Orient Express,"325 W 11th St, Manhattan, NY",-74.0074404,40.7357769
The Cubbyhole Bar,"281 W 12th St, Manhattan, NY",-74.0037636,40.7376831
Via Carota,"51 GROVE St, Manhattan, NY",-74.0036512,40.7331774
Coarse nyc,"306 W 13th St, Manhattan, NY",-74.0036422,40.7391363
The Commerce Inn,"50 Commerce St, Manhattan, NY",-74.0057057,40.7313538
Bluestone Lane,"55 Greenwich Ave, Manhattan, NY",-74.0008906,40.7358132
SOB's,"200 VARICK St, Manhattan, NY",-74.0051195,40.7282898
Sushi Katsuei,"357 6th Ave, Manhattan, NY",-74.0008394,40.7322085
Barrow's Pub,"93 Barrow St, Manhattan, NY",-74.0069235,40.7315942
The Clam,"420 Hudson St, Manhattan, NY",-74.0065779,40.7303191
Cafe Cluny,"284 W 12th St, Manhattan, NY",-74.0040071,40.7374065
Sevilla restaurant and bar,"62 Charles St, Manhattan, NY",-74.0029255,40.7348316
Barrow Street Alehouse,"15 Barrow St, Manhattan, NY",-74.0024921,40.7324814
Jajaja Mexicana,"63 Carmine St, Manhattan, NY",-74.0046039,40.7298848
Kobrick Coffee Co.,"24 9th Ave , Manhattan, NY",-74.005608,40.7402729
632 BELOW,"632 Hudson ST, Manhattan, NY",-74.0052983,40.7384446
STK,"28 Little W 12th St, Manhattan, NY",-74.0074075,40.7399644
The Grey Dog,"49 Carmine St, Manhattan, NY",-74.0039152,40.7300189
Wild,"535 Hudson St, Manhattan, NY",-74.0063544,40.734617
Casa Restaurant,"72 Bedford St, Manhattan, NY",-74.0047416,40.7314875
White Horse Tavern,"567 Hudson St, Manhattan, NY",-74.0061649,40.735719
Palma,"28 Cornelia, Manhattan, NY",-74.0023544,40.7311877
Casa La Femme,"140 Charles St, Manhattan, NY",-74.0079383,40.7338968
Bluestone lane,"30 Carmine St, Manhattan, NY",-74.0028476,40.7300129
American Bar,"33 Greenwich Ave , Manhattan, NY",-74.0003402,40.7348852
Marie Blachère,"303 6th Ave, Manhattan, NY",-74.0019756,40.7307189
Katana Kitten,"531 Hudson St, Manhattan, NY",-74.0064917,40.7342517
Blind Tiger,"281 Bleecker St, Manhattan, NY",-74.0031807,40.731884
Tavern on Jane,"31 8th Ave, Manhattan, NY",-74.0042883,40.7382629
Sveta,"64 Carmine St , Manhattan, NY",-74.0041443,40.729705
I Sodi,"105 Christopher St, Manhattan, NY",-74.0050225,40.7334635
Spunto Thin Crust Pizza,"65 Carmine St, Manhattan, NY",-74.0046957,40.7298592
One if By Land Two if By Sea,"17 Barrow St, Manhattan, NY",-74.0025839,40.7324944
ART BAR,"52 8th Ave, Manhattan, NY",-74.0035078,40.7384981
Baker & Co,"259 Bleecker St , Manhattan, NY",-74.0028134,40.7313686
Brass Monkey,"53 Little W 12th St, Manhattan, NY",-74.0084012,40.7407516
Piccolo Angolo,"621 Hudson St, Manhattan, NY",-74.0058545,40.7380562
BOMBAY BISTRO,"31 CORNELIA ST, Manhattan, NY",-74.0025839,40.7314519
The Spaniard,"190 W 4th St, Manhattan, NY",-74.0022796,40.7326969
Moustache,"90 Bedford St, Manhattan, NY",-74.0053204,40.7323474
Simò Pizza,"90 Gansevoort St, Manhattan, NY",-74.0087429,40.7392955
John's of Bleecker St,"278 Bleecker St, Manhattan, NY",-74.0034468,40.7316187
Olio e Piu,"3 Greenwich Ave, Manhattan, NY",-73.9998553,40.7338521
Lena,"10 Morton St, Manhattan, NY",-74.003548,40.7311638
Judy Z’s Sports Tavern,"1 7th Ave South, Manhattan, NY",-74.0047531,40.7297805
Brass Monkey,"55 Little W 12th St, Manhattan, NY",-74.0084701,40.7407421
Mole,"57 Jane St, Manhattan, NY",-74.0053901,40.738226
232 Bleecker,"232 Bleecker St, Manhattan, NY",-74.0025683,40.7301548
Jeffrey's Grocery,"172 WAverly Place, Manhattan, NY",-74.0013903,40.734024
Arthur's Tavern,"57 GROVE St, Manhattan, NY",-74.0034612,40.7332053
Bar Pitti,"268 6th Ave, Manhattan, NY",-74.0021326,40.7290382
Solaro,"13 Carmine St, Manhattan, NY",-74.0024003,40.730615
La Pecora Bianca,"817 Washington St, Manhattan, NY",-74.0077589,40.739596
La Loteria,"29 7th Ave SOUth, Manhattan, NY",-74.0041448,40.7308623
Lamano,"39 Christopher ST, Manhattan, NY",-74.0015554,40.7339022
Ramen-Ya,"181 W 4th St , Manhattan, NY",-74.0016657,40.7325187
Hudson Hound,"575 Hudson St, Manhattan, NY",-74.0061647,40.7361294
Ollie,"64 Downing St, Manhattan, NY",-74.0048793,40.7288427
Flip Sigi,"131 7th Ave S, Manhattan, NY",-74.0020674,40.7344965
Marble Dessert Bar,"27 Bedford St, Manhattan, NY",-74.0037431,40.7291547
The Chester,"18 9th Ave, Manhattan, NY",-74.0057231,40.7399008
La Ripaille,"605 Hudson St, Manhattan, NY",-74.0059811,40.7372616
Rivoli Pizza,"176 7th Ave South, Manhattan, NY",-74.0017026,40.7359906
Coffee and Cocktails,"18 9th Ave, Manhattan, NY",-74.0057231,40.7399008
Hector's Cafe & Diner,"44 Little W 12th St, Manhattan, NY",-74.0082889,40.7402925
Serafina,"7 9th Ave, Manhattan, NY",-74.0047761,40.742277
Carmine Street Beers,"52 CARMINE St, Manhattan, NY",-74.003575,40.729756
La Bonbonniere Resturant,"28 8th Ave, Manhattan, NY",-74.0043464,40.7377602
Julius Bar,"159 W 10th St, Manhattan, NY",-74.0017116,40.7345329
Standard Biergarten,"848  Washington ST, Manhattan, NY",-74.0081158,40.7409422
Karaoke Boho,"186 W 4th St, Manhattan, NY",-74.0021482,40.7325738
EL TORO BLANCO,"257 6th Ave, Manhattan, NY",-74.002807,40.7290259
Anton's,"570 Hudson St, Manhattan, NY",-74.0057727,40.7356767
Cafe Panino Mucho Gusto,"551 Hudson St, Manhattan, NY",-74.0063025,40.7352609
L'Accolade,"302 Bleecker St, Manhattan, NY",-74.0039498,40.7324838
NINANO,"61 GROVE St, Manhattan, NY",-74.0033234,40.7333402
Rafele Restaurant,"29A 7th Ave S, Manhattan, NY",-74.0040978,40.7309582
Ramen Danbo,"48 CARMINE St, Manhattan, NY",-74.0034562,40.7298766
Cotenna,"21 Bedford St, Manhattan, NY",-74.0036513,40.7290065
Urban Vegan Kitchen,"41 Carmine St, Manhattan, NY",-74.0036822,40.7301946
Daily Provisions,"29 BEDFORD St, Manhattan, NY",-74.0037316,40.7292206
Le Gigot,"18 Cornelia St, Manhattan, NY",-74.001914,40.7313345
The Monster,"80 Grove St, Manhattan, NY",-74.0023353,40.7333573
Cocu Rotisserie,"26 CARMINE St, Manhattan, NY",-74.0026811,40.7300459
Houston Hall,"222 WEST HOUSTON St, Manhattan, NY",-74.0047186,40.7288006
Market Table,"54 CARMINE St, Manhattan, NY",-74.003701,40.729717
Sabor Argentino,"57 7th Ave SOUth, Manhattan, NY",-74.0037161,40.7316564
Meme Mediterranean,"581 Hudson St, Manhattan, NY",-74.006155,40.736362
Boucherie West Village,"99 7th Ave, Manhattan, NY",-73.9966875,40.7423807
Don Angie,"103 Greenwich Ave, Manhattan, NY",-74.002053,40.7378068
Osteria Carlina,"455 Hudson St, Manhattan, NY",-74.006992,40.731408
Nami Nori,"33 Carmine St, Manhattan, NY",-74.0032496,40.7302914
Bleecker Street Pizza,"69 7th Ave South, Manhattan, NY",-74.0034045,40.7322005
Cafe Luna,"628 Hudson St, Manhattan, NY",-74.0053786,40.7383306
Red Paper Clip,"120 Christopher St, Manhattan, NY",-74.0055679,40.7330332
Nat's on Bank,"51 BANK St, Manhattan, NY",-74.0038923,40.7369462
Sogno Toscano,"17 Perry St, Manhattan, NY",-74.0019207,40.7358738
High Street on Hudson,"637 Hudson St, Manhattan, NY",-74.0057401,40.7388972
Oscar's Place,"466 Hudson St, Manhattan, NY",-74.00639,40.731794
Hao Noodle and Tea,"401 Ave of the Americas, Manhattan, NY",-74.000013,40.7335199
Empellon Taqueria,"230 W 4th St, Manhattan, NY",-74.0030683,40.734142
Bell Book & Candle,"141 W 10th St, Manhattan, NY",-74.0008911,40.734693
Turks & Frogs,"323 W 11th St, Manhattan, NY",-74.0074023,40.7358481
Tio Pepe Restaurant,"168 W 4th St, Manhattan, NY",-74.0016583,40.7319679
Balaboosta,"611 Hudson St, Manhattan, NY",-74.0058893,40.7376733
Bar Pisellino,"100 7th Ave S, Manhattan, NY",-74.0034275,40.7329801
Tavern On Jane,"31 8th Ave, Manhattan, NY",-74.0042883,40.7382629
The Standard Grill,"848 Washington St, Manhattan, NY",-74.0081158,40.7409422
Top Thai Vintage,"55 Carmine St, Manhattan, NY",-74.0042366,40.7299486
Poke Rice,"162 WEST 4th St, Manhattan, NY",-74.0013903,40.7318232
Spunto NYC Thin Crust Pizza,"9 7th Ave South, Manhattan, NY",-74.0046982,40.729935
Art Bar,"52 8th Ave, Manhattan, NY",-74.0035078,40.7384981
Vin Sur Vingt,"192 7 Ave SOUth, Manhattan, NY",-74.0015123,40.7363455
North Fork Restaurant,"122 Christopher St, Manhattan, NY",-74.0056771,40.7330757
Pieces,"8 Christopher St, Manhattan, NY",-74.0001048,40.7338418
Temperance Wine Bar,"38-40 CARMINE ST, Manhattan, NY",-74.0031643,40.7299287
The Cubbyhole Bar,"281 W 12th St, Manhattan, NY",-74.0037636,40.7376831
Automatic Slim's,"733 Washington St, Manhattan, NY",-74.0080928,40.7363254
Hudson Clearwater,"447 Hudson St, Manhattan, NY",-74.0069452,40.7311048
Emily,"35 Downing St, Manhattan, NY",-74.0037767,40.7293862
Employees Only,"510 Hudson St, Manhattan, NY",-74.0061358,40.7334379
Lola Taverna,"210 6th Ave, Manhattan, NY",-74.0030659,40.7271763
Stafili Wine Cafe,"796 Greenwich St, Manhattan, NY",-74.0065965,40.7373928
Wallse Restaurant,"344 W 11th St, Manhattan, NY",-74.0082356,40.7354249
CATCH,"21 9th Ave, Manhattan, NY",-74.0060934,40.7402523
Market Table,"54 Carmine St, Manhattan, NY",-74.003701,40.729717
The Warren,"131 Christopher St, Manhattan, NY",-74.0067112,40.7331377
Bandits,"44 BEDFORD St, Manhattan, NY",-74.0041104,40.730423
Cafe Kitsune,"550 Hudson St, Manhattan, NY",-74.0057975,40.7350735
Jeju Noodle Bar,"679 Greenwich St, Manhattan, NY",-74.007255,40.733031
Mitla,"213 6th Ave, Manhattan, NY",-74.0034161,40.7275312
Playhouse Bar,"100A 7th Ave S, Manhattan, NY",-74.0034964,40.7327899
Ghandi Cafe,"283 Bleecker St, Manhattan, NY",-74.0031348,40.7319933
Mary's Fish Camp,"246 W 4th St, Manhattan, NY",-74.003223,40.734701
Murray's Cheese Bar,"254 Bleecker St, Manhattan, NY",-74.0030971,40.7310236
Trattorie Pesce Pasta,"262 Bleecker St, Manhattan, NY",-74.0031463,40.7311745
Avena,"260-264 6th Ave, Manhattan, NY",-74.002161,40.728903
Mad Morton,"47 7th Ave South, Manhattan, NY",-73.9998336,40.7380107
